SITRO-AIS 26            
1 59067U 24039S   24089.88359149  .00006505  00000+0  64135-3 0  9992
2 59067  95.3971  43.7261 0172352 255.3617 102.8439 14.81672508  4367
SITRO-AIS 27            
1 59068U 24039T   24089.88152152  .00006427  00000+0  63212-3 0  9996
2 59068  95.3973  43.7291 0172126 255.2423 102.9669 14.81788564  4362
SITRO-AIS 28            
1 59071U 24039U   24089.88079299  .00006504  00000+0  63932-3 0  9995
2 59071  95.3972  43.7303 0171972 255.2414 102.9695 14.81825314  4361
